NORAD_CAT_ID,OBJECT_NAME,OBJECT_TYPE,EPOCH,MEAN_MOTION,ECCENTRICITY,INCLINATION,RA_OF_ASC_NODE,ARG_OF_PERICENTER,MEAN_ANOMALY,BSTAR,MEAN_MOTION_DOT,MEAN_MOTION_DDOT,TLE_LINE0,TLE_LINE1,TLE_LINE2,SEMIMAJOR_AXIS,PERIOD,APOGEE,PERIGEE,DECAYED
49410.0,STARLINK-3147,PAYLOAD,2022-11-03 09:23:22,15.08845916,0.0003062,53.2166,316.2413,25.092,335.022,5.8805e-05,6.48e-06,0.0,0 STARLINK-3147,1 49410U 21104C   22307.39122920  .00000648  00000-0  58805-4 0  9996,2 49410  53.2166 316.2413 0003062  25.0920 335.0220 15.08845916 54104,6917.861999999999,95.437,541.846,537.609,0.0
49410.0,STARLINK-3147,PAYLOAD,2022-11-04 09:14:09,15.08840856,0.0003122,53.2163,311.7813,25.3643,334.7502,0.00010736,1.421e-05,0.0,0 STARLINK-3147,1 49410U 21104C   22308.38482842  .00001421  00000-0  10736-3 0  9998,2 49410  53.2163 311.7813 0003122  25.3643 334.7502 15.08840856 54250,6917.878000000002,95.438,541.903,537.5830000000002,0.0
49410.0,STARLINK-3147,PAYLOAD,2022-11-05 09:04:55,15.08847959,0.0002981,53.2168,307.3197,29.7235,330.3926,2.3493e-05,8.5e-07,0.0,0 STARLINK-3147,1 49410U 21104C   22309.37842541  .00000085  00000-0  23493-4 0  9994,2 49410  53.2168 307.3197 0002981  29.7235 330.3926 15.08847959 54408,6917.856,95.437,541.783,537.659,0.0
49410.0,STARLINK-3147,PAYLOAD,2022-11-05 17:01:52,15.08839611,0.0003087,53.2166,305.833,26.5849,333.5301,3.721e-05,3.04e-06,0.0,0 STARLINK-3147,1 49410U 21104C   22309.70963052  .00000304  00000-0  37210-4 0  9998,2 49410  53.2166 305.8330 0003087  26.5849 333.5301 15.08839611 55535,6917.882,95.438,541.882,537.611,0.0
49410.0,STARLINK-3147,PAYLOAD,2022-11-06 07:20:20,15.08838052,0.0003116,53.2169,303.1573,24.1944,335.9194,-2.6473e-05,-7.1e-06,0.0,0 STARLINK-3147,1 49410U 21104C   22310.30579261 -.00000710  00000-0 -26473-4 0  9993,2 49410  53.2169 303.1573 0003116  24.1944 335.9194 15.08838052 54545,6917.886,95.438,541.9069999999998,537.596,0.0
49410.0,STARLINK-3147,PAYLOAD,2022-11-06 16:52:40,15.08827818,0.0003039,53.2168,301.3726,24.9728,335.1411,-4.0263e-05,-9.29e-06,0.0,0 STARLINK-3147,1 49410U 21104C   22310.70324148 -.00000929  00000-0 -40263-4 0  9994,2 49410  53.2168 301.3726 0003039  24.9728 335.1411 15.08827818 55684,6917.918000000002,95.438,541.885,537.68,0.0
49410.0,STARLINK-3147,PAYLOAD,2022-11-07 05:35:44,15.08840763,0.0002981,53.2168,298.9934,26.5025,333.6119,4.7031e-05,4.6e-06,0.0,0 STARLINK-3147,1 49410U 21104C   22311.23315332  .00000460  00000-0  47031-4 0  9996,2 49410  53.2168 298.9934 0002981  26.5025 333.6119 15.08840763 55760,6917.878000000002,95.438,541.805,537.681,0.0
49410.0,STARLINK-3147,PAYLOAD,2022-11-07 08:46:31,15.08835925,0.0002933,53.2167,298.3993,24.1479,335.965,8.1963e-06,-1.58e-06,0.0,0 STARLINK-3147,1 49410U 21104C   22311.36563705 -.00000158  00000-0  81963-5 0  9997,2 49410  53.2167 298.3993 0002933  24.1479 335.9650 15.08835925 55783,6917.893,95.438,541.7869999999998,537.729,0.0
49410.0,STARLINK-3147,PAYLOAD,2022-11-08 05:26:30,15.08846101,0.0002918999999999,53.2178,294.5334,23.5176,336.595,0.0001952,2.82e-05,0.0,0 STARLINK-3147,1 49410U 21104C   22312.22674643  .00002820  00000-0  19520-3 0  9992,2 49410  53.2178 294.5334 0002919  23.5176 336.5950 15.08846101 55916,6917.861999999999,95.437,541.746,537.707,0.0
49410.0,STARLINK-3147,PAYLOAD,2022-11-08 16:34:12,15.088525199999998,0.0003188999999999,53.2179,292.4518,26.1331,333.9822,0.00029705,4.444e-05,0.0,0 STARLINK-3147,1 49410U 21104C   22312.69041990  .00004444  00000-0  29705-3 0  9996,2 49410  53.2179 292.4518 0003189  26.1331 333.9822 15.08852520 54909,6917.842,95.437,541.913,537.501,0.0
49410.0,STARLINK-3147,PAYLOAD,2022-11-09 08:28:03,15.0885536,0.0003047,53.2177,289.4785,27.9368,332.1787,0.00016265,2.302e-05,0.0,0 STARLINK-3147,1 49410U 21104C   22313.35282030  .00002302  00000-0  16265-3 0  9990,2 49410  53.2177 289.4785 0003047  27.9368 332.1787 15.08855360 55009,6917.833000000001,95.437,541.806,537.591,0.0
49410.0,STARLINK-3147,PAYLOAD,2022-11-10 01:57:19,15.08830214,0.000257,53.2157,286.2011,36.3809,323.7358,-0.00034864,-5.832e-05,0.0,0 STARLINK-3147,1 49410U 21104C   22314.08147007 -.00005832  00000-0 -34864-3 0  9993,2 49410  53.2157 286.2011 0002570  36.3809 323.7358 15.08830214 56190,6917.91,95.438,541.553,537.997,0.0
49410.0,STARLINK-3147,PAYLOAD,2022-11-10 06:43:28,15.08831571,0.0002946,53.2159,285.3144,24.5043,335.6088,-0.00022668,-3.894e-05,0.0,0 STARLINK-3147,1 49410U 21104C   22314.28019156 -.00003894  00000-0 -22668-3 0  9993,2 49410  53.2159 285.3144 0002946  24.5043 335.6088 15.08831571 55148,6917.906,95.438,541.809,537.7330000000002,0.0
49410.0,STARLINK-3147,PAYLOAD,2022-11-10 14:40:24,15.08834529,0.0002918,53.2161,283.8277,24.0242,336.0886,5.1425e-05,5.3e-06,0.0,0 STARLINK-3147,1 49410U 21104C   22314.61139228  .00000530  00000-0  51425-4 0  9999,2 49410  53.2161 283.8277 0002918  24.0242 336.0886 15.08834529 56278,6917.897,95.438,541.781,537.743,0.0
49410.0,STARLINK-3147,PAYLOAD,2022-11-11 03:23:30,15.08825677,0.0002844,53.2164,281.4492,23.0828,337.0292,0.00029047,4.336e-05,0.0,0 STARLINK-3147,1 49410U 21104C   22315.14132196  .00004336  00000-0  29047-3 0  9997,2 49410  53.2164 281.4492 0002844  23.0828 337.0292 15.08825677 56356,6917.924,95.438,541.757,537.822,0.0
49410.0,STARLINK-3147,PAYLOAD,2022-11-11 06:34:16,15.08828507,0.000285,53.2162,280.8543,23.2739,336.8381,0.00035207,5.318e-05,0.0,0 STARLINK-3147,1 49410U 21104C   22315.27380268  .00005318  00000-0  35207-3 0  9992,2 49410  53.2162 280.8543 0002850  23.2739 336.8381 15.08828507 55297,6917.916,95.438,541.752,537.809,0.0
49410.0,STARLINK-3147,PAYLOAD,2022-11-11 20:52:44,15.08837096,0.000285,53.2161,278.1781,24.6974,335.4154,0.00038547,5.851e-05,0.0,0 STARLINK-3147,1 49410U 21104C   22315.86996491  .00005851  00000-0  38547-3 0  9990,2 49410  53.2161 278.1781 0002850  24.6974 335.4154 15.08837096 55382,6917.889,95.438,541.726,537.783,0.0
49410.0,STARLINK-3147,PAYLOAD,2022-11-12 04:49:40,15.08842407,0.0002811,53.2161,276.6917,25.1313,334.9815,0.00046668,7.147e-05,0.0,0 STARLINK-3147,1 49410U 21104C   22316.20116485  .00007147  00000-0  46668-3 0  9999,2 49410  53.2161 276.6917 0002811  25.1313 334.9815 15.08842407 56512,6917.873000000001,95.437,541.683,537.793,0.0
49410.0,STARLINK-3147,PAYLOAD,2022-11-12 14:21:59,15.08855673,0.0002832,53.216,274.9074,26.1623,333.9512,0.00066378,0.00010296,0.0,0 STARLINK-3147,1 49410U 21104C   22316.59860034  .00010296  00000-0  66378-3 0  9996,2 49410  53.2160 274.9074 0002832  26.1623 333.9512 15.08855673 55492,6917.831999999999,95.437,541.6569999999998,537.738,0.0
49410.0,STARLINK-3147,PAYLOAD,2022-11-12 20:43:31,15.08868155,0.0002806,53.2157,273.7168,24.6774,335.4351,0.00082552,0.00012885,0.0,0 STARLINK-3147,1 49410U 21104C   22316.86355403  .00012885  00000-0  82552-3 0  9993,2 49410  53.2157 273.7168 0002806  24.6774 335.4351 15.08868155 55532,6917.794,95.436,541.6,537.7180000000002,0.0
49410.0,STARLINK-3147,PAYLOAD,2022-11-13 03:05:03,15.08863664,0.0002674,53.2153,272.5267,21.515,338.5954,0.0004886,7.502e-05,0.0,0 STARLINK-3147,1 49410U 21104C   22317.12851029  .00007502  00000-0  48860-3 0  9992,2 49410  53.2153 272.5267 0002674  21.5150 338.5954 15.08863664 56659,6917.808000000001,95.436,541.523,537.823,0.0
49410.0,STARLINK-3147,PAYLOAD,2022-11-13 06:15:49,15.08856393,0.0002774,53.2157,271.9336,25.0453,335.0674,0.00019582,2.831e-05,0.0,0 STARLINK-3147,1 49410U 21104C   22317.26099124  .00002831  00000-0  19582-3 0  9996,2 49410  53.2157 271.9336 0002774  25.0453 335.0674 15.08856393 56673,6917.83,95.437,541.614,537.776,0.0
49410.0,STARLINK-3147,PAYLOAD,2022-11-13 14:12:45,15.08842978,0.0002863,53.2156,270.4457,25.8635,334.25,-1.3978e-05,-5.11e-06,0.0,0 STARLINK-3147,1 49410U 21104C   22317.59219656 -.00000511  00000-0 -13978-4 0  9995,2 49410  53.2156 270.4457 0002863  25.8635 334.2500 15.08842978 56728,6917.871,95.437,541.717,537.756,0.0
49410.0,STARLINK-3147,PAYLOAD,2022-11-14 06:06:37,15.08827292,0.0002775,53.2158,267.4724,27.3684,332.7454,-0.00022785,-3.912e-05,0.0,0 STARLINK-3147,1 49410U 21104C   22318.25460490 -.00003912  00000-0 -22785-3 0  9996,2 49410  53.2158 267.4724 0002775  27.3684 332.7454 15.08827292 56820,6917.919,95.438,541.7040000000002,537.865,0.0
49410.0,STARLINK-3147,PAYLOAD,2022-11-14 14:03:33,15.08830134,0.000275,53.2154,265.9854,26.8266,333.2868,0.00024659,3.637e-05,0.0,0 STARLINK-3147,1 49410U 21104C   22318.58580722  .00003637  00000-0  24659-3 0  9997,2 49410  53.2154 265.9854 0002750  26.8266 333.2868 15.08830134 55795,6917.911,95.438,541.678,537.873,0.0
49410.0,STARLINK-3147,PAYLOAD,2022-11-15 02:46:39,15.0883957,0.0002911,53.2157,263.6077,25.3809,334.7325,0.00065849,0.00010207,0.0,0 STARLINK-3147,1 49410U 21104C   22319.11572971  .00010207  00000-0  65849-3 0  9991,2 49410  53.2157 263.6077 0002911  25.3809 334.7325 15.08839570 56952,6917.882,95.438,541.76,537.7330000000002,0.0
49410.0,STARLINK-3147,PAYLOAD,2022-11-15 18:40:30,15.08836967,0.0003023,53.2158,260.6353,22.8339,337.2787,0.00023845,3.508e-05,0.0,0 STARLINK-3147,1 49410U 21104C   22319.77813240  .00003508  00000-0  23845-3 0  9996,2 49410  53.2158 260.6353 0003023  22.8339 337.2787 15.08836967 57051,6917.89,95.438,541.846,537.663,0.0
49410.0,STARLINK-3147,PAYLOAD,2022-11-16 02:37:26,15.08834635,0.0003085,53.2154,259.1484,23.7681,336.3453,0.00020326,2.947e-05,0.0,0 STARLINK-3147,1 49410U 21104C   22320.10933481  .00002947  00000-0  20326-3 0  9992,2 49410  53.2154 259.1484 0003085  23.7681 336.3453 15.08834635 56029,6917.897,95.438,541.896,537.628,0.0
49410.0,STARLINK-3147,PAYLOAD,2022-11-16 23:17:26,15.08847199,0.0003094,53.2156,255.2823,25.2802,334.8341,0.00022974,3.371e-05,0.0,0 STARLINK-3147,1 49410U 21104C   22320.97044942  .00003371  00000-0  22974-3 0  9995,2 49410  53.2156 255.2823 0003094  25.2802 334.8341 15.08847199 57239,6917.858,95.437,541.864,537.5830000000002,0.0
